ONEWEB-0234             
1 48783U 21045S   25262.09309676  .00000821  00000+0  21469-2 0  9993
2 48783  87.9024 313.2737 0002722 113.3854 246.7563 13.15558235208838
ONEWEB-0238             
1 48784U 21045T   25262.09339391 -.00000074  00000+0 -23019-3 0  9997
2 48784  87.9018 313.2702 0002148 103.6069 256.5301 13.15549653208738
ONEWEB-0240             
1 48785U 21045U   25262.11465201  .00000086  00000+0  19311-3 0  9992
2 48785  87.9025 313.2514 0001738 110.7978 249.3338 13.15548754208764
ONEWEB-0246             
1 48786U 21045V   25262.10909835  .00000010  00000+0 -74140-5 0  9999
2 48786  87.9031 313.2645 0001753  93.4254 266.7077 13.15549534208634
ONEWEB-0210             
1 48787U 21045W   25262.15980685 -.00000056  00000+0 -18249-3 0  9994
2 48787  87.9026 313.2544 0001231  82.8133 277.3138 13.15549302208680
ONEWEB-0214             
1 48788U 21045X   25262.09245694 -.00000068  00000+0 -21461-3 0  9995
2 48788  87.9019 313.2557 0001633  81.0427 279.0888 13.15549105208648
ONEWEB-0221             
1 48789U 21045Y   25261.64323596 -.00000028  00000+0 -10946-3 0  9996
2 48789  87.9019 313.3696 0001701  97.9161 262.2162 13.15550253208679
ONEWEB-0213             
1 48790U 21045Z   25262.08849852 -.00000035  00000+0 -12625-3 0  9999
2 48790  87.9017 313.2898 0001574  96.2644 263.8666 13.15549932208799
ONEWEB-0212             
1 48791U 21045AA  25262.06553165  .00000134  00000+0  32118-3 0  9994
2 48791  87.9021 313.2780 0001913  97.4267 262.7081 13.15548741208781
ONEWEB-0227             
1 48792U 21045AB  25262.06473279  .00000200  00000+0  49698-3 0  9997
2 48792  87.9014 313.2970 0001689  98.7774 261.3548 13.15548204208734
ONEWEB-0226             
1 48793U 21045AC  25262.05839333  .00000197  00000+0  48950-3 0  9999
2 48793  87.9020 313.3044 0001522  92.0833 268.0471 13.15548471208706
ONEWEB-0224             
1 48794U 21045AD  25262.09801007 -.00000260  00000+0 -72575-3 0  9994
2 48794  87.9026 313.3303 0002041 129.2069 230.9243 13.15548042208633
ONEWEB-0233             
1 48795U 21045AE  25261.87445083 -.00000135  00000+0 -39289-3 0  9994
2 48795  87.9021 313.3871 0001615 104.4062 255.7248 13.15548679208628
ONEWEB-0190             
1 48796U 21045AF  25262.09006519 -.00000088  00000+0 -26705-3 0  9993
2 48796  87.9022 313.3062 0001085 102.3185 257.8067 13.15550655208726
ONEWEB-0236             
1 48797U 21045AG  25262.10751654 -.00000037  00000+0 -13345-3 0  9993
2 48797  87.9024 313.3132 0001984  99.6171 260.5183 13.15549531208617
ONEWEB-0248             
1 48798U 21045AH  25262.12018391  .00000168  00000+0  41253-3 0  9992
2 48798  87.9029 313.2672 0001551 115.5382 244.5909 13.15549985208771
