[{"OBJECT_NAME":"ONEWEB-0234","OBJECT_ID":"2021-045S","EPOCH":"2025-09-19T02:14:03.560064","MEAN_MOTION":13.15558235,"ECCENTRICITY":0.00027223,"INCLINATION":87.9024,"RA_OF_ASC_NODE":313.2737,"ARG_OF_PERICENTER":113.3854,"MEAN_ANOMALY":246.7563,"EPHEMERIS_TYPE":0,"CLASSIFICATION_TYPE":"U","NORAD_CAT_ID":48783,"ELEMENT_SET_NO":999,"REV_AT_EPOCH":20883,"BSTAR":0.0021468733,"MEAN_MOTION_DOT":8.21e-6,"MEAN_MOTION_DDOT":0},{"OBJECT_NAME":"ONEWEB-0238","OBJECT_ID":"2021-045T","EPOCH":"2025-09-19T02:14:29.233824","MEAN_MOTION":13.15549653,"ECCENTRICITY":0.00021481,"INCLINATION":87.9018,"RA_OF_ASC_NODE":313.2702,"ARG_OF_PERICENTER":103.6069,"MEAN_ANOMALY":256.5301,"EPHEMERIS_TYPE":0,"CLASSIFICATION_TYPE":"U","NORAD_CAT_ID":48784,"ELEMENT_SET_NO":999,"REV_AT_EPOCH":20873,"BSTAR":-0.00023018735,"MEAN_MOTION_DOT":-7.4e-7,"MEAN_MOTION_DDOT":0},{"OBJECT_NAME":"ONEWEB-0240","OBJECT_ID":"2021-045U","EPOCH":"2025-09-19T02:45:05.933664","MEAN_MOTION":13.15548754,"ECCENTRICITY":0.0001738,"INCLINATION":87.9025,"RA_OF_ASC_NODE":313.2514,"ARG_OF_PERICENTER":110.7978,"MEAN_ANOMALY":249.3338,"EPHEMERIS_TYPE":0,"CLASSIFICATION_TYPE":"U","NORAD_CAT_ID":48785,"ELEMENT_SET_NO":999,"REV_AT_EPOCH":20876,"BSTAR":0.00019311476,"MEAN_MOTION_DOT":8.6e-7,"MEAN_MOTION_DDOT":0},{"OBJECT_NAME":"ONEWEB-0246","OBJECT_ID":"2021-045V","EPOCH":"2025-09-19T02:37:06.097440","MEAN_MOTION":13.15549534,"ECCENTRICITY":0.00017536,"INCLINATION":87.9031,"RA_OF_ASC_NODE":313.2645,"ARG_OF_PERICENTER":93.4254,"MEAN_ANOMALY":266.7077,"EPHEMERIS_TYPE":0,"CLASSIFICATION_TYPE":"U","NORAD_CAT_ID":48786,"ELEMENT_SET_NO":999,"REV_AT_EPOCH":20863,"BSTAR":-7.41399e-6,"MEAN_MOTION_DOT":1.0e-7,"MEAN_MOTION_DDOT":0},{"OBJECT_NAME":"ONEWEB-0210","OBJECT_ID":"2021-045W","EPOCH":"2025-09-19T03:50:07.311840","MEAN_MOTION":13.15549302,"ECCENTRICITY":0.00012315,"INCLINATION":87.9026,"RA_OF_ASC_NODE":313.2544,"ARG_OF_PERICENTER":82.8133,"MEAN_ANOMALY":277.3138,"EPHEMERIS_TYPE":0,"CLASSIFICATION_TYPE":"U","NORAD_CAT_ID":48787,"ELEMENT_SET_NO":999,"REV_AT_EPOCH":20868,"BSTAR":-0.00018249006,"MEAN_MOTION_DOT":-5.6e-7,"MEAN_MOTION_DDOT":0},{"OBJECT_NAME":"ONEWEB-0214","OBJECT_ID":"2021-045X","EPOCH":"2025-09-19T02:13:08.279616","MEAN_MOTION":13.15549105,"ECCENTRICITY":0.00016334,"INCLINATION":87.9019,"RA_OF_ASC_NODE":313.2557,"ARG_OF_PERICENTER":81.0427,"MEAN_ANOMALY":279.0888,"EPHEMERIS_TYPE":0,"CLASSIFICATION_TYPE":"U","NORAD_CAT_ID":48788,"ELEMENT_SET_NO":999,"REV_AT_EPOCH":20864,"BSTAR":-0.00021461229,"MEAN_MOTION_DOT":-6.8e-7,"MEAN_MOTION_DDOT":0},{"OBJECT_NAME":"ONEWEB-0221","OBJECT_ID":"2021-045Y","EPOCH":"2025-09-18T15:26:15.586944","MEAN_MOTION":13.15550253,"ECCENTRICITY":0.00017014,"INCLINATION":87.9019,"RA_OF_ASC_NODE":313.3696,"ARG_OF_PERICENTER":97.9161,"MEAN_ANOMALY":262.2162,"EPHEMERIS_TYPE":0,"CLASSIFICATION_TYPE":"U","NORAD_CAT_ID":48789,"ELEMENT_SET_NO":999,"REV_AT_EPOCH":20867,"BSTAR":-0.00010945835,"MEAN_MOTION_DOT":-2.8e-7,"MEAN_MOTION_DDOT":0},{"OBJECT_NAME":"ONEWEB-0213","OBJECT_ID":"2021-045Z","EPOCH":"2025-09-19T02:07:26.272128","MEAN_MOTION":13.15549932,"ECCENTRICITY":0.00015741,"INCLINATION":87.9017,"RA_OF_ASC_NODE":313.2898,"ARG_OF_PERICENTER":96.2644,"MEAN_ANOMALY":263.8666,"EPHEMERIS_TYPE":0,"CLASSIFICATION_TYPE":"U","NORAD_CAT_ID":48790,"ELEMENT_SET_NO":999,"REV_AT_EPOCH":20879,"BSTAR":-0.0001262515,"MEAN_MOTION_DOT":-3.5e-7,"MEAN_MOTION_DDOT":0},{"OBJECT_NAME":"ONEWEB-0212","OBJECT_ID":"2021-045AA","EPOCH":"2025-09-19T01:34:21.934560","MEAN_MOTION":13.15548741,"ECCENTRICITY":0.0001913,"INCLINATION":87.9021,"RA_OF_ASC_NODE":313.278,"ARG_OF_PERICENTER":97.4267,"MEAN_ANOMALY":262.7081,"EPHEMERIS_TYPE":0,"CLASSIFICATION_TYPE":"U","NORAD_CAT_ID":48791,"ELEMENT_SET_NO":999,"REV_AT_EPOCH":20878,"BSTAR":0.00032117506,"MEAN_MOTION_DOT":1.34e-6,"MEAN_MOTION_DDOT":0},{"OBJECT_NAME":"ONEWEB-0227","OBJECT_ID":"2021-045AB","EPOCH":"2025-09-19T01:33:12.913056","MEAN_MOTION":13.15548204,"ECCENTRICITY":0.00016893,"INCLINATION":87.9014,"RA_OF_ASC_NODE":313.297,"ARG_OF_PERICENTER":98.7774,"MEAN_ANOMALY":261.3548,"EPHEMERIS_TYPE":0,"CLASSIFICATION_TYPE":"U","NORAD_CAT_ID":48792,"ELEMENT_SET_NO":999,"REV_AT_EPOCH":20873,"BSTAR":0.00049697883,"MEAN_MOTION_DOT":2.0e-6,"MEAN_MOTION_DDOT":0},{"OBJECT_NAME":"ONEWEB-0226","OBJECT_ID":"2021-045AC","EPOCH":"2025-09-19T01:24:05.183712","MEAN_MOTION":13.15548471,"ECCENTRICITY":0.00015225,"INCLINATION":87.902,"RA_OF_ASC_NODE":313.3044,"ARG_OF_PERICENTER":92.0833,"MEAN_ANOMALY":268.0471,"EPHEMERIS_TYPE":0,"CLASSIFICATION_TYPE":"U","NORAD_CAT_ID":48793,"ELEMENT_SET_NO":999,"REV_AT_EPOCH":20870,"BSTAR":0.00048949908,"MEAN_MOTION_DOT":1.97e-6,"MEAN_MOTION_DDOT":0},{"OBJECT_NAME":"ONEWEB-0224","OBJECT_ID":"2021-045AD","EPOCH":"2025-09-19T02:21:08.070048","MEAN_MOTION":13.15548042,"ECCENTRICITY":0.0002041,"INCLINATION":87.9026,"RA_OF_ASC_NODE":313.3303,"ARG_OF_PERICENTER":129.2069,"MEAN_ANOMALY":230.9243,"EPHEMERIS_TYPE":0,"CLASSIFICATION_TYPE":"U","NORAD_CAT_ID":48794,"ELEMENT_SET_NO":999,"REV_AT_EPOCH":20863,"BSTAR":-0.00072574864,"MEAN_MOTION_DOT":-2.6e-6,"MEAN_MOTION_DDOT":0},{"OBJECT_NAME":"ONEWEB-0233","OBJECT_ID":"2021-045AE","EPOCH":"2025-09-18T20:59:12.551712","MEAN_MOTION":13.15548679,"ECCENTRICITY":0.00016158,"INCLINATION":87.9021,"RA_OF_ASC_NODE":313.3871,"ARG_OF_PERICENTER":104.4062,"MEAN_ANOMALY":255.7248,"EPHEMERIS_TYPE":0,"CLASSIFICATION_TYPE":"U","NORAD_CAT_ID":48795,"ELEMENT_SET_NO":999,"REV_AT_EPOCH":20862,"BSTAR":-0.00039288598,"MEAN_MOTION_DOT":-1.35e-6,"MEAN_MOTION_DDOT":0},{"OBJECT_NAME":"ONEWEB-0190","OBJECT_ID":"2021-045AF","EPOCH":"2025-09-19T02:09:41.632416","MEAN_MOTION":13.15550655,"ECCENTRICITY":0.00010859,"INCLINATION":87.9022,"RA_OF_ASC_NODE":313.3062,"ARG_OF_PERICENTER":102.3185,"MEAN_ANOMALY":257.8067,"EPHEMERIS_TYPE":0,"CLASSIFICATION_TYPE":"U","NORAD_CAT_ID":48796,"ELEMENT_SET_NO":999,"REV_AT_EPOCH":20872,"BSTAR":-0.00026705369,"MEAN_MOTION_DOT":-8.8e-7,"MEAN_MOTION_DDOT":0},{"OBJECT_NAME":"ONEWEB-0236","OBJECT_ID":"2021-045AG","EPOCH":"2025-09-19T02:34:49.429056","MEAN_MOTION":13.15549531,"ECCENTRICITY":0.00019849,"INCLINATION":87.9024,"RA_OF_ASC_NODE":313.3132,"ARG_OF_PERICENTER":99.6171,"MEAN_ANOMALY":260.5183,"EPHEMERIS_TYPE":0,"CLASSIFICATION_TYPE":"U","NORAD_CAT_ID":48797,"ELEMENT_SET_NO":999,"REV_AT_EPOCH":20861,"BSTAR":-0.00013344854,"MEAN_MOTION_DOT":-3.7e-7,"MEAN_MOTION_DDOT":0},{"OBJECT_NAME":"ONEWEB-0248","OBJECT_ID":"2021-045AH","EPOCH":"2025-09-19T02:53:03.889824","MEAN_MOTION":13.15549985,"ECCENTRICITY":0.00015513,"INCLINATION":87.9029,"RA_OF_ASC_NODE":313.2672,"ARG_OF_PERICENTER":115.5382,"MEAN_ANOMALY":244.5909,"EPHEMERIS_TYPE":0,"CLASSIFICATION_TYPE":"U","NORAD_CAT_ID":48798,"ELEMENT_SET_NO":999,"REV_AT_EPOCH":20877,"BSTAR":0.00041253341,"MEAN_MOTION_DOT":1.68e-6,"MEAN_MOTION_DDOT":0}]
